{
    "links": {
        "self": "http://www.neowsapp.com/rest/v1/neo/3448785?api_key=iIulBulltgU6a56xZRHN4H3l9WmuAYTsLGpBGhQ2"
    },
    "id": "3448785",
    "neo_reference_id": "3448785",
    "name": "(2009 DM40)",
    "designation": "2009 DM40",
    "nasa_jpl_url": "http://ssd.jpl.nasa.gov/sbdb.cgi?sstr=3448785",
    "absolute_magnitude_h": 26.8,
    "estimated_diameter": {
        "kilometers": {
            "estimated_diameter_min": 0.0116025908,
            "estimated_diameter_max": 0.0259441818
        },
        "meters": {
            "estimated_diameter_min": 11.6025908209,
            "estimated_diameter_max": 25.9441817907
        },
        "miles": {
            "estimated_diameter_min": 0.0072095135,
            "estimated_diameter_max": 0.0161209622
        },
        "feet": {
            "estimated_diameter_min": 38.066244069,
            "estimated_diameter_max": 85.1187093863
        }
    },
    "is_potentially_hazardous_asteroid": false,
    "close_approach_data": [
        {
            "close_approach_date": "2009-02-23",
            "close_approach_date_full": "2009-Feb-23 02:16",
            "epoch_date_close_approach": 1235355360000,
            "relative_velocity": {
                "kilometers_per_second": "9.3746498539",
                "kilometers_per_hour": "33748.739474143",
                "miles_per_hour": "20970.1542582529"
            },
            "miss_distance": {
                "astronomical": "0.0033992931",
                "lunar": "1.3223250159",
                "kilometers": "508527.007265697",
                "miles": "315984.0299407386"
            },
            "orbiting_body": "Moon"
        },
        {
            "close_approach_date": "2009-02-23",
            "close_approach_date_full": "2009-Feb-23 11:05",
            "epoch_date_close_approach": 1235387100000,
            "relative_velocity": {
                "kilometers_per_second": "8.8226956637",
                "kilometers_per_hour": "31761.7043894443",
                "miles_per_hour": "19735.4879302077"
            },
            "miss_distance": {
                "astronomical": "0.0053324292",
                "lunar": "2.0743149588",
                "kilometers": "797720.050245804",
                "miles": "495680.2542239352"
            },
            "orbiting_body": "Earth"
        }
    ],
    "orbital_data": {
        "orbit_id": "7",
        "orbit_determination_date": "2017-04-06 09:01:14",
        "first_observation_date": "2009-02-26",
        "last_observation_date": "2009-02-26",
        "data_arc_in_days": null,
        "observations_used": 10,
        "orbit_uncertainty": "9",
        "minimum_orbit_intersection": ".00401522",
        "jupiter_tisserand_invariant": "4.815",
        "epoch_osculation": "2454889.5",
        "eccentricity": ".3496708665441483",
        "semi_major_axis": "1.34459274221513",
        "inclination": "6.962203695624869",
        "ascending_node_longitude": "153.595531179008",
        "orbital_period": "569.4879917173502",
        "perihelion_distance": ".8744278328957926",
        "perihelion_argument": "305.5506823577701",
        "aphelion_distance": "1.814757651534467",
        "perihelion_time": "2454842.544280336589",
        "mean_anomaly": "29.68290697026291",
        "mean_motion": ".6321467796263494",
        "equinox": "J2000",
        "orbit_class": {
            "orbit_class_type": "APO",
            "orbit_class_description": "Near-Earth asteroid orbits which cross the Earth’s orbit similar to that of 1862 Apollo",
            "orbit_class_range": "a (semi-major axis) > 1.0 AU; q (perihelion) < 1.017 AU"
        }
    },
    "is_sentry_object": false
}